{
  "norad_id": 49029,
  "name": "YAOGAN-30 11C",
  "history": [
    {
      "epoch": "2026-03-28T22:35:00.125088Z",
      "apogee_km": 563.2327850358879,
      "perigee_km": 556.5597846225392,
      "latitude_deg": -4.201347675984506e-06,
      "longitude_deg": -123.51302908139364,
      "height_km": 558.0908566996259,
      "semi_major_axis_km": 6938.033284829214,
      "eccentricity": 0.0004809,
      "inclination_deg": 34.9957,
      "raan_deg": 41.5917,
      "arg_perigee_deg": 282.5439,
      "mean_anomaly_deg": 77.4731,
      "mean_motion_rev_day": 15.02270688
    },
    {
      "epoch": "2026-03-29T04:57:48.184416Z",
      "apogee_km": 563.2097623037844,
      "perigee_km": 556.5783922001474,
      "latitude_deg": -3.37134552750125e-05,
      "longitude_deg": 138.90546391057725,
      "height_km": 558.0118838522695,
      "semi_major_axis_km": 6938.031077251966,
      "eccentricity": 0.0004779,
      "inclination_deg": 34.9957,
      "raan_deg": 39.9725,
      "arg_perigee_deg": 283.9872,
      "mean_anomaly_deg": 76.0304,
      "mean_motion_rev_day": 15.02271405
    },
    {
      "epoch": "2026-03-30T04:53:17.906208Z",
      "apogee_km": 563.1415599787106,
      "perigee_km": 556.5934713168426,
      "latitude_deg": 1.234854442631954e-05,
      "longitude_deg": 132.97732752036114,
      "height_km": 557.6183792413972,
      "semi_major_axis_km": 6938.004515647776,
      "eccentricity": 0.0004719,
      "inclination_deg": 34.9958,
      "raan_deg": 33.9007,
      "arg_perigee_deg": 290.9079,
      "mean_anomaly_deg": 69.1124,
      "mean_motion_rev_day": 15.02280032
    },
    {
      "epoch": "2026-03-30T06:28:59.867904Z",
      "apogee_km": 563.1342914794832,
      "perigee_km": 556.5959182958368,
      "latitude_deg": -4.019424119778393e-05,
      "longitude_deg": 108.58230867178315,
      "height_km": 557.5839151988431,
      "semi_major_axis_km": 6938.00210488766,
      "eccentricity": 0.0004712,
      "inclination_deg": 34.9957,
      "raan_deg": 33.4961,
      "arg_perigee_deg": 291.543,
      "mean_anomaly_deg": 68.4775,
      "mean_motion_rev_day": 15.02280815
    },
    {
      "epoch": "2026-03-30T12:51:47.724192Z",
      "apogee_km": 563.1365731915275,
      "perigee_km": 556.5821092880315,
      "latitude_deg": 3.7083881095738305e-05,
      "longitude_deg": 11.001701906633789,
      "height_km": 557.4603374524886,
      "semi_major_axis_km": 6937.996341239779,
      "eccentricity": 0.00047236,
      "inclination_deg": 34.9958,
      "raan_deg": 31.8768,
      "arg_perigee_deg": 293.7191,
      "mean_anomaly_deg": 66.3022,
      "mean_motion_rev_day": 15.02282687
    }
  ]
}